1998-067XK              
1 65731U 98067XK  26025.68987706  .00234646  00000+0  13277-2 0  9994
2 65731  51.6251 272.5001 0004172 150.1862 209.9377 15.77852039 20059
RSP-03                  
1 65732U 98067XL  26025.67914594  .00451393  00000+0  16219-2 0  9998
2 65732  51.6206 270.1344 0005320 167.5616 192.5521 15.86998570 20092
YOTSUBA-KULOVER         
1 65941U 98067XN  26025.63786342  .00136068  00000+0  12205-2 0  9994
2 65941  51.6265 278.1763 0004425 163.1319 196.9825 15.67338887 16727
BOTAN                   
1 65942U 98067XP  26025.61180227  .00273960  00000+0  16435-2 0  9995
2 65942  51.6220 275.7312 0005005 171.6243 188.4842 15.76416676 16758
E-KAGAKU-1              
1 65943U 98067XQ  26024.74525476  .00118261  00000+0  10762-2 0  9997
2 65943  51.6279 282.7241 0003092 165.0419 195.0669 15.67057145 16582
HRC MONOBLOCK CAMERA    
1 66052U 98067XR  26025.71441153  .00057818  00000+0  76406-3 0  9994
2 66052  51.6296 281.6920 0000652  17.5001 342.6014 15.57780701 15686
HTV-X1                  
1 66174U 25241A   26025.52956391  .00014870  00000+0  28510-3 0  9991
2 66174  51.6317 285.7043 0010958  29.6295 330.5312 15.48176704   510
SZ-21 MODULE            
1 66515U 25246C   26025.60489789  .00040571  00000+0  39793-3 0  9998
2 66515  41.4752 107.9254 0003260 237.6166 122.4359 15.65292049 11313
SHENZHOU-22             
1 66645U 25272A   26025.62929125  .00027552  00000+0  32006-3 0  9990
2 66645  41.4667 109.8872 0009914   0.3997 359.6849 15.61068734267643
SOYUZ-MS 28             
1 66664U 25275A   26025.59411361  .00015080  00000+0  28895-3 0  9992
2 66664  51.6319 285.3847 0011094  29.7203 330.4413 15.48178940549654
DUPLEX                  
1 66906U 98067XS  26025.71235234  .00034660  00000+0  54672-3 0  9994
2 66906  51.6307 283.9258 0001838  56.8793 303.2373 15.53193071  8448
1998-067XT              
1 66907U 98067XT  26025.75790425  .00115065  00000+0  14582-2 0  9991
2 66907  51.6285 282.7302 0003182 124.4275 235.7018 15.58587556  8469
