CCSDS_OMM_VERS = 2.0
CREATION_DATE  = 
ORIGINATOR     = 

OBJECT_NAME    = 1998-067XK
OBJECT_ID      = 1998-067XK
CENTER_NAME    = EARTH
REF_FRAME      = TEME
TIME_SYSTEM    = UTC
MEAN_ELEMENT_THEORY = SGP/SGP4

EPOCH          = 2026-01-25T16:33:25.377984
MEAN_MOTION    = 15.77852039
ECCENTRICITY   = .0004172
INCLINATION    = 51.6251
RA_OF_ASC_NODE = 272.5001
ARG_OF_PERICENTER = 150.1862
MEAN_ANOMALY   = 209.9377

EPHEMERIS_TYPE = 0
CLASSIFICATION_TYPE = U
NORAD_CAT_ID   = 65731
ELEMENT_SET_NO = 999
REV_AT_EPOCH   = 2005
BSTAR          = .13277E-2
MEAN_MOTION_DOT = .234646E-2
MEAN_MOTION_DDOT = 0

CCSDS_OMM_VERS = 2.0
CREATION_DATE  = 
ORIGINATOR     = 

OBJECT_NAME    = RSP-03
OBJECT_ID      = 1998-067XL
CENTER_NAME    = EARTH
REF_FRAME      = TEME
TIME_SYSTEM    = UTC
MEAN_ELEMENT_THEORY = SGP/SGP4

EPOCH          = 2026-01-25T16:17:58.209216
MEAN_MOTION    = 15.86998570
ECCENTRICITY   = .000532
INCLINATION    = 51.6206
RA_OF_ASC_NODE = 270.1344
ARG_OF_PERICENTER = 167.5616
MEAN_ANOMALY   = 192.5521

EPHEMERIS_TYPE = 0
CLASSIFICATION_TYPE = U
NORAD_CAT_ID   = 65732
ELEMENT_SET_NO = 999
REV_AT_EPOCH   = 2009
BSTAR          = .16219E-2
MEAN_MOTION_DOT = .451393E-2
MEAN_MOTION_DDOT = 0

CCSDS_OMM_VERS = 2.0
CREATION_DATE  = 
ORIGINATOR     = 

OBJECT_NAME    = YOTSUBA-KULOVER
OBJECT_ID      = 1998-067XN
CENTER_NAME    = EARTH
REF_FRAME      = TEME
TIME_SYSTEM    = UTC
MEAN_ELEMENT_THEORY = SGP/SGP4

EPOCH          = 2026-01-25T15:18:31.399488
MEAN_MOTION    = 15.67338887
ECCENTRICITY   = .00044256
INCLINATION    = 51.6265
RA_OF_ASC_NODE = 278.1763
ARG_OF_PERICENTER = 163.1319
MEAN_ANOMALY   = 196.9825

EPHEMERIS_TYPE = 0
CLASSIFICATION_TYPE = U
NORAD_CAT_ID   = 65941
ELEMENT_SET_NO = 999
REV_AT_EPOCH   = 1672
BSTAR          = .12204883E-2
MEAN_MOTION_DOT = .136068E-2
MEAN_MOTION_DDOT = 0

CCSDS_OMM_VERS = 2.0
CREATION_DATE  = 
ORIGINATOR     = 

OBJECT_NAME    = BOTAN
OBJECT_ID      = 1998-067XP
CENTER_NAME    = EARTH
REF_FRAME      = TEME
TIME_SYSTEM    = UTC
MEAN_ELEMENT_THEORY = SGP/SGP4

EPOCH          = 2026-01-25T14:40:59.716128
MEAN_MOTION    = 15.76416676
ECCENTRICITY   = .00050058
INCLINATION    = 51.6220
RA_OF_ASC_NODE = 275.7312
ARG_OF_PERICENTER = 171.6243
MEAN_ANOMALY   = 188.4842

EPHEMERIS_TYPE = 0
CLASSIFICATION_TYPE = U
NORAD_CAT_ID   = 65942
ELEMENT_SET_NO = 999
REV_AT_EPOCH   = 1675
BSTAR          = .16434656E-2
MEAN_MOTION_DOT = .27396E-2
MEAN_MOTION_DDOT = 0

CCSDS_OMM_VERS = 2.0
CREATION_DATE  = 
ORIGINATOR     = 

OBJECT_NAME    = E-KAGAKU-1
OBJECT_ID      = 1998-067XQ
CENTER_NAME    = EARTH
REF_FRAME      = TEME
TIME_SYSTEM    = UTC
MEAN_ELEMENT_THEORY = SGP/SGP4

EPOCH          = 2026-01-24T17:53:10.011264
MEAN_MOTION    = 15.67057145
ECCENTRICITY   = .0003092
INCLINATION    = 51.6279
RA_OF_ASC_NODE = 282.7241
ARG_OF_PERICENTER = 165.0419
MEAN_ANOMALY   = 195.0669

EPHEMERIS_TYPE = 0
CLASSIFICATION_TYPE = U
NORAD_CAT_ID   = 65943
ELEMENT_SET_NO = 999
REV_AT_EPOCH   = 1658
BSTAR          = .10761698E-2
MEAN_MOTION_DOT = .118261E-2
MEAN_MOTION_DDOT = 0

CCSDS_OMM_VERS = 2.0
CREATION_DATE  = 
ORIGINATOR     = 

OBJECT_NAME    = HRC MONOBLOCK CAMERA
OBJECT_ID      = 1998-067XR
CENTER_NAME    = EARTH
REF_FRAME      = TEME
TIME_SYSTEM    = UTC
MEAN_ELEMENT_THEORY = SGP/SGP4

EPOCH          = 2026-01-25T17:08:45.156192
MEAN_MOTION    = 15.57780701
ECCENTRICITY   = .0000652
INCLINATION    = 51.6296
RA_OF_ASC_NODE = 281.6920
ARG_OF_PERICENTER = 17.5001
MEAN_ANOMALY   = 342.6014

EPHEMERIS_TYPE = 0
CLASSIFICATION_TYPE = U
NORAD_CAT_ID   = 66052
ELEMENT_SET_NO = 999
REV_AT_EPOCH   = 1568
BSTAR          = .76406E-3
MEAN_MOTION_DOT = .57818E-3
MEAN_MOTION_DDOT = 0

CCSDS_OMM_VERS = 2.0
CREATION_DATE  = 
ORIGINATOR     = 

OBJECT_NAME    = HTV-X1
OBJECT_ID      = 2025-241A
CENTER_NAME    = EARTH
REF_FRAME      = TEME
TIME_SYSTEM    = UTC
MEAN_ELEMENT_THEORY = SGP/SGP4

EPOCH          = 2026-01-25T12:42:34.321824
MEAN_MOTION    = 15.48176704
ECCENTRICITY   = .00109586
INCLINATION    = 51.6317
RA_OF_ASC_NODE = 285.7043
ARG_OF_PERICENTER = 29.6295
MEAN_ANOMALY   = 330.5312

EPHEMERIS_TYPE = 0
CLASSIFICATION_TYPE = U
NORAD_CAT_ID   = 66174
ELEMENT_SET_NO = 999
REV_AT_EPOCH   = 51
BSTAR          = .28509977E-3
MEAN_MOTION_DOT = .1487E-3
MEAN_MOTION_DDOT = 0

CCSDS_OMM_VERS = 2.0
CREATION_DATE  = 
ORIGINATOR     = 

OBJECT_NAME    = SZ-21 MODULE
OBJECT_ID      = 2025-246C
CENTER_NAME    = EARTH
REF_FRAME      = TEME
TIME_SYSTEM    = UTC
MEAN_ELEMENT_THEORY = SGP/SGP4

EPOCH          = 2026-01-25T14:31:03.177696
MEAN_MOTION    = 15.65292049
ECCENTRICITY   = .000326
INCLINATION    = 41.4752
RA_OF_ASC_NODE = 107.9254
ARG_OF_PERICENTER = 237.6166
MEAN_ANOMALY   = 122.4359

EPHEMERIS_TYPE = 0
CLASSIFICATION_TYPE = U
NORAD_CAT_ID   = 66515
ELEMENT_SET_NO = 999
REV_AT_EPOCH   = 1131
BSTAR          = .39793E-3
MEAN_MOTION_DOT = .40571E-3
MEAN_MOTION_DDOT = 0

CCSDS_OMM_VERS = 2.0
CREATION_DATE  = 
ORIGINATOR     = 

OBJECT_NAME    = SHENZHOU-22
OBJECT_ID      = 2025-272A
CENTER_NAME    = EARTH
REF_FRAME      = TEME
TIME_SYSTEM    = UTC
MEAN_ELEMENT_THEORY = SGP/SGP4

EPOCH          = 2026-01-25T15:06:10.764000
MEAN_MOTION    = 15.61068734
ECCENTRICITY   = .00099147
INCLINATION    = 41.4667
RA_OF_ASC_NODE = 109.8872
ARG_OF_PERICENTER = 0.3997
MEAN_ANOMALY   = 359.6849

EPHEMERIS_TYPE = 0
CLASSIFICATION_TYPE = U
NORAD_CAT_ID   = 66645
ELEMENT_SET_NO = 999
REV_AT_EPOCH   = 26764
BSTAR          = .32006088E-3
MEAN_MOTION_DOT = .27552E-3
MEAN_MOTION_DDOT = 0

CCSDS_OMM_VERS = 2.0
CREATION_DATE  = 
ORIGINATOR     = 

OBJECT_NAME    = SOYUZ-MS 28
OBJECT_ID      = 2025-275A
CENTER_NAME    = EARTH
REF_FRAME      = TEME
TIME_SYSTEM    = UTC
MEAN_ELEMENT_THEORY = SGP/SGP4

EPOCH          = 2026-01-25T14:15:31.415904
MEAN_MOTION    = 15.48178940
ECCENTRICITY   = .0011094
INCLINATION    = 51.6319
RA_OF_ASC_NODE = 285.3847
ARG_OF_PERICENTER = 29.7203
MEAN_ANOMALY   = 330.4413

EPHEMERIS_TYPE = 0
CLASSIFICATION_TYPE = U
NORAD_CAT_ID   = 66664
ELEMENT_SET_NO = 999
REV_AT_EPOCH   = 54965
BSTAR          = .28895E-3
MEAN_MOTION_DOT = .1508E-3
MEAN_MOTION_DDOT = 0

CCSDS_OMM_VERS = 2.0
CREATION_DATE  = 
ORIGINATOR     = 

OBJECT_NAME    = DUPLEX
OBJECT_ID      = 1998-067XS
CENTER_NAME    = EARTH
REF_FRAME      = TEME
TIME_SYSTEM    = UTC
MEAN_ELEMENT_THEORY = SGP/SGP4

EPOCH          = 2026-01-25T17:05:47.242176
MEAN_MOTION    = 15.53193071
ECCENTRICITY   = .0001838
INCLINATION    = 51.6307
RA_OF_ASC_NODE = 283.9258
ARG_OF_PERICENTER = 56.8793
MEAN_ANOMALY   = 303.2373

EPHEMERIS_TYPE = 0
CLASSIFICATION_TYPE = U
NORAD_CAT_ID   = 66906
ELEMENT_SET_NO = 999
REV_AT_EPOCH   = 844
BSTAR          = .54672E-3
MEAN_MOTION_DOT = .3466E-3
MEAN_MOTION_DDOT = 0

CCSDS_OMM_VERS = 2.0
CREATION_DATE  = 
ORIGINATOR     = 

OBJECT_NAME    = 1998-067XT
OBJECT_ID      = 1998-067XT
CENTER_NAME    = EARTH
REF_FRAME      = TEME
TIME_SYSTEM    = UTC
MEAN_ELEMENT_THEORY = SGP/SGP4

EPOCH          = 2026-01-25T18:11:22.927200
MEAN_MOTION    = 15.58587556
ECCENTRICITY   = .0003182
INCLINATION    = 51.6285
RA_OF_ASC_NODE = 282.7302
ARG_OF_PERICENTER = 124.4275
MEAN_ANOMALY   = 235.7018

EPHEMERIS_TYPE = 0
CLASSIFICATION_TYPE = U
NORAD_CAT_ID   = 66907
ELEMENT_SET_NO = 999
REV_AT_EPOCH   = 846
BSTAR          = .14582E-2
MEAN_MOTION_DOT = .115065E-2
MEAN_MOTION_DDOT = 0

